GSAT0101 (PRN E11)      
1 37846U 11060A   17090.19640167 -.00000002  00000-0  00000-0 0  9990
2 37846  55.7697  73.8935 0005457 322.3829  37.5643  1.70473578 33875
GSAT0102 (PRN E12)      
1 37847U 11060B   17091.42143701 -.00000005  00000-0  00000-0 0  9993
2 37847  55.7716  73.8586 0006608 308.4746 126.0888  1.70475783 33901
GSAT0103 (PRN E19)      
1 38857U 12055A   17089.65393271  .00000004  00000-0  00000-0 0  9999
2 38857  54.9109 194.2054 0003674 229.2387 130.7440  1.70473579 27796
GSAT0104 (PRN E20)      
1 38858U 12055B   17087.82849446  .00000002  00000-0  00000-0 0  9995
2 38858  54.9116 194.2549 0002574 224.1586 135.8245  1.70473609 27701
GSAT0201 (PRN E18)      
1 40128U 14050A   17091.52081032 -.00000052  00000-0  00000-0 0  9992
2 40128  50.2668  48.2857 1616887  60.8204 314.3418  1.85518891 15944
GSAT0202 (PRN E14)      
1 40129U 14050B   17091.24972298 -.00000053  00000-0  00000-0 0  9996
2 40129  50.3207  47.2906 1617534  61.8387 313.5039  1.85519466 18078
GSAT0203 (PRN E26)      
1 40544U 15017A   17088.80553988  .00000003  00000-0  00000-0 0  9994
2 40544  55.5575  74.2345 0004286 269.1068  90.8336  1.70475113 11817
GSAT0204 (PRN E22)      
1 40545U 15017B   17086.82895383  .00000012  00000-0  00000-0 0  9993
2 40545  55.5622  74.3007 0001896 265.6568  94.3217  1.70475351 12448
GSAT0205 (PRN E24)      
1 40889U 15045A   17091.17452295 -.00000030  00000-0  00000-0 0  9991
2 40889  57.0681 314.2239 0004113  20.8012 339.2542  1.70474435  9668
GSAT0206 (PRN E30)      
1 40890U 15045B   17086.70182016 -.00000010  00000-0  00000-0 0  9995
2 40890  57.0701 314.3433 0002618  22.3747 337.6980  1.70474554  9615
GSAT0209 (PRN E09)      
1 41174U 15079A   17089.22045995  .00000004  00000-0  00000-0 0  9994
2 41174  54.9236 193.9040 0004412 281.7610  78.2028  1.70474052  7970
GSAT0208 (PRN E08)      
1 41175U 15079B   17088.85381728  .00000004  00000-0  00000-0 0  9990
2 41175  54.9222 193.9155 0003468 278.0896  81.8823  1.70474064  7974
GSAT0211 (PRN E02)      
1 41549U 16030A   17091.31984153 -.00000030  00000-0  00000-0 0  9999
2 41549  57.2068 313.9550 0002278 332.8197  27.2063  1.70474259  5319
GSAT0210 (PRN E01)      
1 41550U 16030B   17091.02652232 -.00000029  00000-0  00000-0 0  9997
2 41550  57.2066 313.9651 0000964 289.2969  70.7318  1.70474307  5313
GSAT0207 (PRN E07)      
1 41859U 16069A   17087.16785602 -.00000001  00000-0  00000-0 0  9999
2 41859  54.5839 194.6208 0004185 267.2185  92.7315  1.70474045  2148
GSAT0212 (PRN E03)      
1 41860U 16069B   17086.43462651 -.00000003  00000-0  00000-0 0  9998
2 41860  54.5815 194.6424 0002924 283.0871  76.8731  1.70473926  2222
GSAT0213 (PRN E04)      
1 41861U 16069C   17087.38781271 -.00000000  00000-0  00000-0 0  9993
2 41861  54.5840 194.6176 0003602 238.6497 121.3145  1.70473898  2233
GSAT0214 (PRN E05)      
1 41862U 16069D   17086.36125971 -.00000004  00000-0  00000-0 0  9994
2 41862  54.5835 194.6435 0002539 237.1703 122.7943  1.70474110  2215
